{
  "_updated_at": "2026-04-18T04:34:30Z",
  "_source": "Celestrak GP / GitHub Actions auto-update",
  "_update_interval": "daily at UTC 02:00",
  "_warnings": [],
  "satellites": [
    {
      "name": "SES-12",
      "catnr": 43488,
      "orbit": "GEO",
      "line0": "SES-12",
      "line1": "1 43488U 18049A   26107.86780913 -.00000263  00000+0  00000+0 0  9997",
      "line2": "2 43488   0.0498  55.0170 0001594 245.3320 313.0596  1.00269913 28813"
    },
    {
      "name": "SES-14",
      "catnr": 43175,
      "orbit": "GEO",
      "line0": "SES-14",
      "line1": "1 43175U 18012B   26107.92839284 -.00000273  00000+0  00000+0 0  9994",
      "line2": "2 43175   0.0160 351.4686 0000849  24.8551 116.4668  1.00270286  6428"
    },
    {
      "name": "SES-15",
      "catnr": 42709,
      "orbit": "GEO",
      "line0": "SES-15",
      "line1": "1 42709U 17026A   26107.69832582  .00000067  00000+0  00000+0 0  9998",
      "line2": "2 42709   0.0274 319.6719 0001318  28.2724 340.1256  1.00265039  6824"
    },
    {
      "name": "SES-17",
      "catnr": 49332,
      "orbit": "GEO",
      "line0": "SES-17",
      "line1": "1 49332U 21095A   26107.92457948 -.00000266  00000+0  00000+0 0  9995",
      "line2": "2 49332   0.0171 359.5388 0000911  19.2265  93.0352  1.00269253 17254"
    },
    {
      "name": "AMC-9",
      "catnr": 27820,
      "orbit": "GEO",
      "line0": "AMC-9 (GE-12)",
      "line1": "1 27820U 03024A   26107.88765933 -.00000118  00000+0  00000+0 0  9992",
      "line2": "2 27820   7.7704  66.4118 0018003 343.4290 222.6381  0.99030191 83398"
    },
    {
      "name": "NSS-12",
      "catnr": 36032,
      "orbit": "GEO",
      "line0": "NSS-12",
      "line1": "1 36032U 09058A   26107.94913978  .00000077  00000+0  00000+0 0  9994",
      "line2": "2 36032   0.1035  70.8437 0004716 296.0452 237.8861  1.00272802 60317"
    },
    {
      "name": "O3b mPOWER F1",
      "catnr": 54755,
      "orbit": "MEO",
      "line0": "O3B MPOWER F1",
      "line1": "1 54755U 22174A   26107.87262646 -.00000013  00000+0  00000+0 0  9992",
      "line2": "2 54755   0.0608 348.0428 0005769  56.3887 128.7068  5.00114769 62345"
    },
    {
      "name": "O3b mPOWER F2",
      "catnr": 54756,
      "orbit": "MEO",
      "line0": "O3B MPOWER F2",
      "line1": "1 54756U 22174B   26107.54324972 -.00000013  00000+0  00000+0 0  9998",
      "line2": "2 54756   0.0576 345.4822 0005941  39.5926 334.9559  5.00115413 62419"
    },
    {
      "name": "O3b mPOWER F3",
      "catnr": 56368,
      "orbit": "MEO",
      "line0": "O3B MPOWER F3",
      "line1": "1 56368U 23059B   26107.64085698 -.00000013  00000+0  00000+0 0  9992",
      "line2": "2 56368   0.0659   3.2105 0006631  26.2766 330.5522  5.00116607 51705"
    },
    {
      "name": "O3b mPOWER F4",
      "catnr": 56367,
      "orbit": "MEO",
      "line0": "O3B MPOWER F4",
      "line1": "1 56367U 23059A   26107.80746533 -.00000013  00000+0  00000+0 0  9991",
      "line2": "2 56367   0.0647   3.3477 0007163  36.0966 320.6097  5.00115892 55588"
    },
    {
      "name": "O3b mPOWER F5",
      "catnr": 58346,
      "orbit": "MEO",
      "line0": "O3B MPOWER F5",
      "line1": "1 58346U 23175A   26107.54167258 -.00000013  00000+0  00000+0 0  9991",
      "line2": "2 58346   0.0439  10.8301 0004397  27.5105 321.6925  5.00115571 46407"
    },
    {
      "name": "O3b mPOWER F6",
      "catnr": 58347,
      "orbit": "MEO",
      "line0": "O3B MPOWER F6",
      "line1": "1 58347U 23175B   26107.84224047 -.00000013  00000+0  00000+0 0  9995",
      "line2": "2 58347   0.0509   5.8949 0004776  11.0013 343.1215  5.00116248 45339"
    }
  ]
}